METAR LKKV 251200Z 21003MPS VCSH 27/10 Q1010 RETS R11/1/////