TAF YUDO 160000Z 1606/1624 13005MPS 9000 BKN020 
BECMG 1606/1608 SCT015CB BKN020 
TEMPO 1608/1612 17006G12MPS 1000 TSRA SCT010CB BKN020 
FM161230 15004MPS 9999 BKN020
