METAR LKKV 251200Z 21003MPS 6000 VCSH ////// 27/10 Q1010 RETS WS R18C R11/1/////